NORAD_CAT_ID,OBJECT_NAME,OBJECT_TYPE,EPOCH,MEAN_MOTION,ECCENTRICITY,INCLINATION,RA_OF_ASC_NODE,ARG_OF_PERICENTER,MEAN_ANOMALY,BSTAR,MEAN_MOTION_DOT,MEAN_MOTION_DDOT,TLE_LINE0,TLE_LINE1,TLE_LINE2,SEMIMAJOR_AXIS,PERIOD,APOGEE,PERIGEE,DECAYED
51981.0,STARLINK-3635,PAYLOAD,2024-06-19 11:03:27,15.08829597,0.0001481,53.2169,339.3518,95.5826,264.5335,-0.00013959,-2.508e-05,0.0,0 STARLINK-3635,1 51981U 22025AB  24171.46073248 -.00002508  00000-0 -13959-3 0  9991,2 51981  53.2169 339.3518 0001481  95.5826 264.5335 15.08829597127319,6917.912,95.438,540.802,538.753,0.0
51981.0,STARLINK-3635,PAYLOAD,2024-06-19 17:24:59,15.08834203,0.0001332,53.2154,338.1632,95.6021,264.5123,-7.0962e-05,-1.417e-05,0.0,0 STARLINK-3635,1 51981U 22025AB  24171.72569063 -.00001417  00000-0 -70962-4 0  9991,2 51981  53.2154 338.1632 0001332  95.6021 264.5123 15.08834203126257,6917.898,95.438,540.685,538.842,0.0
51981.0,STARLINK-3635,PAYLOAD,2024-06-20 04:32:41,15.08845548,0.0001322,53.2166,336.0808,98.5556,261.5586,0.00027016,4.015e-05,0.0,0 STARLINK-3635,1 51981U 22025AB  24172.18936835  .00004015  00000-0  27016-3 0  9993,2 51981  53.2166 336.0808 0001322  98.5556 261.5586 15.08845548127420,6917.863,95.437,540.643,538.814,0.0
51981.0,STARLINK-3635,PAYLOAD,2024-06-20 14:05:00,15.08844076,0.0001429,53.2167,334.2973,96.9878,263.1277,0.00043643,6.665e-05,0.0,0 STARLINK-3635,1 51981U 22025AB  24172.58681116  .00006665  00000-0  43643-3 0  9993,2 51981  53.2167 334.2973 0001429  96.9878 263.1277 15.08844076126385,6917.868,95.437,540.721,538.744,0.0
51981.0,STARLINK-3635,PAYLOAD,2024-06-20 17:15:46,15.08844351,0.0001421,53.2168,333.7027,95.2457,264.8697,0.00052256,8.039e-05,0.0,0 STARLINK-3635,1 51981U 22025AB  24172.71929169  .00008039  00000-0  52256-3 0  9998,2 51981  53.2168 333.7027 0001421  95.2457 264.8697 15.08844351127502,6917.867,95.437,540.715,538.749,0.0
51981.0,STARLINK-3635,PAYLOAD,2024-06-21 10:45:01,15.08846423,0.0001405,53.2171,330.4313,95.0681,265.0471,0.00036673,5.554e-05,0.0,0 STARLINK-3635,1 51981U 22025AB  24173.44793059  .00005554  00000-0  36673-3 0  9990,2 51981  53.2171 330.4313 0001405  95.0681 265.0471 15.08846423127614,6917.861,95.437,540.698,538.754,0.0
51981.0,STARLINK-3635,PAYLOAD,2024-06-21 13:55:47,15.08843442,0.0001425,53.2178,329.836,97.9946,262.1208,0.00021477,3.132e-05,0.0,0 STARLINK-3635,1 51981U 22025AB  24173.58041126  .00003132  00000-0  21477-3 0  9992,2 51981  53.2178 329.8360 0001425  97.9946 262.1208 15.08843442126536,6917.87,95.437,540.721,538.749,0.0
51981.0,STARLINK-3635,PAYLOAD,2024-06-21 17:06:33,15.08842431,0.0001402,53.2179,329.2414,97.5786,262.5365,0.00016881,2.4e-05,0.0,0 STARLINK-3635,1 51981U 22025AB  24173.71289158  .00002400  00000-0  16881-3 0  9996,2 51981  53.2179 329.2414 0001402  97.5786 262.5365 15.08842431126551,6917.873,95.437,540.708,538.768,0.0
51981.0,STARLINK-3635,PAYLOAD,2024-06-22 13:46:34,15.08838589,0.0001367,53.2174,325.3758,97.229,262.8857,7.6453e-05,9.29e-06,0.0,0 STARLINK-3635,1 51981U 22025AB  24174.57401434  .00000929  00000-0  76453-4 0  9990,2 51981  53.2174 325.3758 0001367  97.2290 262.8857 15.08838589126683,6917.885,95.438,540.695,538.804,0.0
51981.0,STARLINK-3635,PAYLOAD,2024-06-22 20:08:07,15.08838872,0.0001331,53.2173,324.1859,96.0144,264.1,3.2992e-05,2.37e-06,0.0,0 STARLINK-3635,1 51981U 22025AB  24174.83897374  .00000237  00000-0  32992-4 0  9993,2 51981  53.2173 324.1859 0001331  96.0144 264.1000 15.08838872127824,6917.884,95.438,540.67,538.828,0.0
51981.0,STARLINK-3635,PAYLOAD,2024-06-23 13:37:21,15.08837811,0.000136,53.218,320.9148,100.8301,259.2845,9.9273e-05,1.292e-05,0.0,0 STARLINK-3635,1 51981U 22025AB  24175.56761542  .00001292  00000-0  99273-4 0  9998,2 51981  53.2180 320.9148 0001360 100.8301 259.2845 15.08837811126832,6917.887,95.438,540.693,538.811,0.0
51981.0,STARLINK-3635,PAYLOAD,2024-06-24 10:17:22,15.08837747,0.0001307,53.2179,317.0489,97.4572,262.6569,0.00010692,1.414e-05,0.0,0 STARLINK-3635,1 51981U 22025AB  24176.42873725  .00001414  00000-0  10692-3 0  9994,2 51981  53.2179 317.0489 0001307  97.4572 262.6569 15.08837747128063,6917.887,95.438,540.656,538.848,0.0
51981.0,STARLINK-3635,PAYLOAD,2024-06-24 13:28:09,15.0883455,0.0001264,53.2175,316.4543,86.7425,273.3711,7.5293e-05,9.1e-06,0.0,0 STARLINK-3635,1 51981U 22025AB  24176.56122084  .00000910  00000-0  75293-4 0  9993,2 51981  53.2175 316.4543 0001264  86.7425 273.3711 15.08834550126989,6917.897,95.438,540.636,538.888,0.0
51981.0,STARLINK-3635,PAYLOAD,2024-06-24 15:03:32,15.08834518,0.0001265,53.2176,316.1569,86.4649,273.6488,7.0793e-05,8.39e-06,0.0,0 STARLINK-3635,1 51981U 22025AB  24176.62746109  .00000839  00000-0  70793-4 0  9990,2 51981  53.2176 316.1569 0001265  86.4649 273.6488 15.08834518126990,6917.897,95.438,540.637,538.887,0.0
51981.0,STARLINK-3635,PAYLOAD,2024-06-25 14:54:19,15.0884167,0.0001254,53.2171,311.6973,73.8456,286.2674,0.00011034,1.469e-05,0.0,0 STARLINK-3635,1 51981U 22025AB  24177.62105795  .00001469  00000-0  11034-3 0  9993,2 51981  53.2171 311.6973 0001254  73.8456 286.2674 15.08841670127140,6917.875,95.437,540.608,538.873,0.0
51981.0,STARLINK-3635,PAYLOAD,2024-06-25 16:29:42,15.0884369,0.0001295,53.2177,311.4008,76.5821,283.5316,0.00012613,1.72e-05,0.0,0 STARLINK-3635,1 51981U 22025AB  24177.68729644  .00001720  00000-0  12613-3 0  9998,2 51981  53.2177 311.4008 0001295  76.5821 283.5316 15.08843690128254,6917.869,95.437,540.63,538.838,0.0
51981.0,STARLINK-3635,PAYLOAD,2024-06-26 02:02:00,15.08849751,0.0001284,53.2179,309.6162,87.5931,272.5208,0.00023466,3.45e-05,0.0,0 STARLINK-3635,1 51981U 22025AB  24178.08472924  .00003450  00000-0  23466-3 0  9999,2 51981  53.2179 309.6162 0001284  87.5931 272.5208 15.08849751128317,6917.851,95.437,540.604,538.827,0.0
51981.0,STARLINK-3635,PAYLOAD,2024-06-27 13:00:30,15.0883753,0.0001308,53.218,303.0706,91.7145,268.3997,-8.0679e-05,-1.572e-05,0.0,0 STARLINK-3635,1 51981U 22025AB  24179.54201853 -.00001572  00000-0 -80679-4 0  9997,2 51981  53.2180 303.0706 0001308  91.7145 268.3997 15.08837530128536,6917.888,95.438,540.658,538.848,0.0
51981.0,STARLINK-3635,PAYLOAD,2024-06-27 19:22:02,15.08847806,0.0001454,53.2185,301.8847,88.5188,271.597,4.7104e-05,4.62e-06,0.0,0 STARLINK-3635,1 51981U 22025AB  24179.80697389  .00000462  00000-0  47104-4 0  9990,2 51981  53.2185 301.8847 0001454  88.5188 271.5970 15.08847806128574,6917.857,95.437,540.727,538.716,0.0
51981.0,STARLINK-3635,PAYLOAD,2024-06-28 14:26:40,15.08843051,0.0001628,53.2176,298.3148,103.3347,256.7827,0.00011568,1.554e-05,0.0,0 STARLINK-3635,1 51981U 22025AB  24180.60185404  .00001554  00000-0  11568-3 0  9997,2 51981  53.2176 298.3148 0001628 103.3347 256.7827 15.08843051127599,6917.871,95.437,540.862,538.61,0.0
51981.0,STARLINK-3635,PAYLOAD,2024-06-29 12:42:04,15.08803281,0.00019,53.2177,294.1474,116.7659,243.3528,0.00054749,8.427e-05,0.0,0 STARLINK-3635,1 51981U 22025AB  24181.52921983  .00008427  00000-0  54749-3 0  9993,2 51981  53.2177 294.1474 0001900 116.7659 243.3528 15.08803281128832,6917.993,95.44,541.172,538.543,0.0
51981.0,STARLINK-3635,PAYLOAD,2024-06-29 14:17:27,15.08838179,0.0001406,53.2179,293.8571,80.6313,279.4838,-1.0105e-05,-4.49e-06,0.0,0 STARLINK-3635,1 51981U 22025AB  24181.59545863 -.00000449  00000-0 -10105-4 0  9996,2 51981  53.2179 293.8571 0001406  80.6313 279.4838 15.08838179127742,6917.886,95.438,540.724,538.778,0.0
51981.0,STARLINK-3635,PAYLOAD,2024-06-30 10:57:29,15.08829063,0.0001421,53.216,289.9836,96.8247,263.2907,-7.4434e-05,-1.472e-05,0.0,0 STARLINK-3635,1 51981U 22025AB  24182.45658747 -.00001472  00000-0 -74434-4 0  9990,2 51981  53.2160 289.9836 0001421  96.8247 263.2907 15.08829063128970,6917.914,95.438,540.762,538.796,0.0
51981.0,STARLINK-3635,PAYLOAD,2024-06-30 14:08:15,15.08828227,0.0001327,53.2167,289.3938,91.2806,268.8338,-5.5381e-05,-1.169e-05,0.0,0 STARLINK-3635,1 51981U 22025AB  24182.58906853 -.00001169  00000-0 -55381-4 0  9991,2 51981  53.2167 289.3938 0001327  91.2806 268.8338 15.08828227127899,6917.916,95.438,540.699,538.863,0.0
51981.0,STARLINK-3635,PAYLOAD,2024-07-01 12:23:39,15.08831549,0.0001287,53.2164,285.2313,80.1876,279.9262,9.1587e-05,1.17e-05,0.0,0 STARLINK-3635,1 51981U 22025AB  24183.51642487  .00001170  00000-0  91587-4 0  9993,2 51981  53.2164 285.2313 0001287  80.1876 279.9262 15.08831549129136,6917.906,95.438,540.662,538.881,0.0
51981.0,STARLINK-3635,PAYLOAD,2024-07-01 13:59:02,15.08833057,0.0001258,53.2165,284.9354,80.1978,279.9156,0.0001162,1.562e-05,0.0,0 STARLINK-3635,1 51981U 22025AB  24183.58266333  .00001562  00000-0  11620-3 0  9996,2 51981  53.2165 284.9354 0001258  80.1978 279.9156 15.08833057128046,6917.902,95.438,540.637,538.896,0.0
51981.0,STARLINK-3635,PAYLOAD,2024-07-01 17:09:48,15.0883618,0.0001261,53.2163,284.3396,75.3831,284.7301,0.00013196,1.813e-05,0.0,0 STARLINK-3635,1 51981U 22025AB  24183.71514174  .00001813  00000-0  13196-3 0  9999,2 51981  53.2163 284.3396 0001261  75.3831 284.7301 15.08836180128060,6917.892,95.438,540.629,538.885,0.0
51981.0,STARLINK-3635,PAYLOAD,2024-07-01 23:31:20,15.08838773,0.0001279,53.2166,283.1505,76.364,283.7494,0.00018151,2.602e-05,0.0,0 STARLINK-3635,1 51981U 22025AB  24183.98009956  .00002602  00000-0  18151-3 0  9998,2 51981  53.2166 283.1505 0001279  76.3640 283.7494 15.08838773129209,6917.884,95.438,540.634,538.864,0.0
51981.0,STARLINK-3635,PAYLOAD,2024-07-02 12:14:27,15.08821282,0.000148,53.2171,280.7744,106.2671,253.8484,9.2904e-05,1.19e-05,0.0,0 STARLINK-3635,1 51981U 22025AB  24184.51003680  .00001190  00000-0  92904-4 0  9996,2 51981  53.2171 280.7744 0001480 106.2671 253.8484 15.08821282129286,6917.938,95.439,540.826,538.779,0.0
51981.0,STARLINK-3635,PAYLOAD,2024-07-02 13:49:50,15.08827932,0.0001085,53.216,280.4748,85.7551,274.3565,0.0001241,1.687e-05,0.0,0 STARLINK-3635,1 51981U 22025AB  24184.57627320  .00001687  00000-0  12410-3 0  9999,2 51981  53.2160 280.4748 0001085  85.7551 274.3565 15.08827932128199,6917.917,95.438,540.533,539.032,0.0
